{"epoch":1784902576,"count":18312,"objects":[{"id":"69982","name":"STARLINK-38065","type":"PAYLOAD","l1":"1 69982U 26159H   26205.25002315 -.00012470  00000-0 -82884-4 0  9990","l2":"2 69982  97.2849  44.4507 0001606 105.9001 263.5905 15.75181637  3308"},{"id":"69983","name":"STARLINK-38077","type":"PAYLOAD","l1":"1 69983U 26159J   26205.11858146  .00355244  00000-0  17799-2 0  9995","l2":"2 69983  97.2853  44.3179 0003260  56.0976 304.0602 15.80825921  3271"},{"id":"69984","name":"STARLINK-38068","type":"PAYLOAD","l1":"1 69984U 26159K   26205.11783725  .00142687  00000-0  73022-3 0  9993","l2":"2 69984  97.2855  44.3189 0006087  36.6916 323.4768 15.80893193  3277"},{"id":"69985","name":"STARLINK-38089","type":"PAYLOAD","l1":"1 69985U 26159L   26205.05377496  .00247319  00000-0  12548-2 0  9994","l2":"2 69985  97.2862  44.2531 0002315  63.0640 297.0865 15.80829243  3262"},{"id":"69986","name":"STARLINK-38073","type":"PAYLOAD","l1":"1 69986U 26159M   26205.11632903  .00396585  00000-0  19774-2 0  9997","l2":"2 69986  97.2854  44.3211 0004077  43.9962 316.1630 15.80825329  3276"},{"id":"69987","name":"STARLINK-38099","type":"PAYLOAD","l1":"1 69987U 26159N   26205.25002315 -.00082706  00000-0 -55862-3 0  9999","l2":"2 69987  97.2849  44.4577 0001662  88.5729 298.9466 15.75204588  3300"},{"id":"69988","name":"STARLINK-38064","type":"PAYLOAD","l1":"1 69988U 26159P   26205.11406548  .00211825  00000-0  10762-2 0  9994","l2":"2 69988  97.2854  44.3241 0001517  83.3719 276.7722 15.80893324  3278"},{"id":"69989","name":"STARLINK-38080","type":"PAYLOAD","l1":"1 69989U 26159Q   26205.11481391  .00507403  00000-0  24989-2 0  9990","l2":"2 69989  97.2857  44.3232 0000974 126.1879 233.9479 15.80813089  3275"},{"id":"69990","name":"STARLINK-38070","type":"PAYLOAD","l1":"1 69990U 26159R   26205.11332259  .00422410  00000-0  21000-2 0  9995","l2":"2 69990  97.2853  44.3248 0003672  51.2805 308.8791 15.80824096  3274"},{"id":"69991","name":"STARLINK-38042","type":"PAYLOAD","l1":"1 69991U 26159S   26205.11256717  .00345092  00000-0  17321-2 0  9991","l2":"2 69991  97.2853  44.3260 0002411  65.0876 295.0643 15.80815297  3276"},{"id":"69992","name":"STARLINK-38071","type":"PAYLOAD","l1":"1 69992U 26159T   26205.11180241  .00340098  00000-0  17071-2 0  9993","l2":"2 69992  97.2857  44.3280 0001736 185.3588 174.7662 15.80827487  3276"},{"id":"69993","name":"STARLINK-38082","type":"PAYLOAD","l1":"1 69993U 26159U   26205.11106019  .00343325  00000-0  17235-2 0  9993","l2":"2 69993  97.2856  44.3281 0001521  82.4297 277.7144 15.80816750  3273"},{"id":"69994","name":"STARLINK-38090","type":"PAYLOAD","l1":"1 69994U 26159V   26205.25002315 -.00090499  00000-0 -47564-3 0  9995","l2":"2 69994  97.2858  44.4792 0001380  80.1248 354.5922 15.80860925  3303"},{"id":"69995","name":"STARLINK-38084","type":"PAYLOAD","l1":"1 69995U 26159W   26205.25002315 -.00162070  00000-0 -11025-2 0  9993","l2":"2 69995  97.2858  44.4688 0000991  89.4589 322.0361 15.75273821  3309"},{"id":"69996","name":"STARLINK-38085","type":"PAYLOAD","l1":"1 69996U 26159X   26205.25002315 -.00059851  00000-0 -31338-3 0  9996","l2":"2 69996  97.2861  44.4824 0001296  77.4468   5.8201 15.80849454  3304"},{"id":"69997","name":"STARLINK-38091","type":"PAYLOAD","l1":"1 69997U 26159Y   26205.25002315 -.00106956  00000-0 -56305-3 0  9997","l2":"2 69997  97.2857  44.4845 0001444  98.2248 349.3123 15.80871285  3301"},{"id":"69998","name":"STARLINK-38086","type":"PAYLOAD","l1":"1 69998U 26159Z   26205.25002315 -.00100128  00000-0 -52668-3 0  9991","l2":"2 69998  97.2858  44.4864 0001384  85.4481   6.3626 15.80870279  3304"},{"id":"100000","name":"SARAMAGO","type":"PAYLOAD","l1":"1 A0000U 26067CY  26205.25138900  .00010075  00000-0  46253-3 0  9990","l2":"2 A0000  97.4593 163.3456 0006080 227.0657 133.0069 15.20587991 17333"},{"id":"100001","name":"STARLINK-38128","type":"PAYLOAD","l1":"1 A0001U          26205.08851304  .00345104  00000-0  18945-2 0  9991","l2":"2 A0001  69.9996   0.4317 0005104 266.5471  93.5145 15.78647428  2794"},{"id":"100002","name":"STARLINK-37711","type":"PAYLOAD","l1":"1 A0002U          26205.08776639  .00287346  00000-0  15891-2 0  9999","l2":"2 A0002  69.9986   0.4250 0003457 277.9883  82.0925 15.78642908  2799"},{"id":"100003","name":"STARLINK-38123","type":"PAYLOAD","l1":"1 A0003U          26205.27712414  .00170327  00000-0  95714-3 0  9995","l2":"2 A0003  69.9989 359.8839 0003962 271.9695  88.1051 15.78600889  2826"},{"id":"100004","name":"STARLINK-38107","type":"PAYLOAD","l1":"1 A0004U          26204.83279496  .00232352  00000-0  12893-2 0  9998","l2":"2 A0004  69.9994   1.1428 0003479 295.9852  64.0990 15.78716034  2755"},{"id":"100005","name":"STARLINK-38122","type":"PAYLOAD","l1":"1 A0005U          26204.95877215  .00238729  00000-0  13280-2 0  9990","l2":"2 A0005  70.0000   0.7798 0003735 280.1495  79.9284 15.78641947  2779"},{"id":"100006","name":"STARLINK-38117","type":"PAYLOAD","l1":"1 A0006U          26204.83127707  .00337511  00000-0  18505-2 0  9996","l2":"2 A0006  70.0007   1.1393 0006352 262.7485  97.2993 15.78688490  2758"},{"id":"100007","name":"STARLINK-38054","type":"PAYLOAD","l1":"1 A0007U          26204.83044514  .00328652  00000-0  17749-2 0  9996","l2":"2 A0007  70.0000   1.1351 0015854 324.6098  35.4048 15.78909783  2757"},{"id":"100008","name":"STARLINK-38124","type":"PAYLOAD","l1":"1 A0008U          26205.27504816 -.00806419  00000-0 -61270-2 0  9994","l2":"2 A0008  70.0004 359.8763 0005903 290.0942  69.9621 15.74248319  2824"},{"id":"100009","name":"STARLINK-38119","type":"PAYLOAD","l1":"1 A0009U          26205.27343556 -.00371844  00000-0 -25028-2 0  9997","l2":"2 A0009  69.9986 359.8691 0005660 221.4394 138.6376 15.75873586  2822"},{"id":"100010","name":"STARLINK-38045","type":"PAYLOAD","l1":"1 A0010U          26204.82828139  .00281126  00000-0  15566-2 0  9991","l2":"2 A0010  69.9998   1.1277 0004770 282.5852  77.4815 15.78627631  2753"},{"id":"100011","name":"STARLINK-38051","type":"PAYLOAD","l1":"1 A0011U 26160L   26204.44731230  .00263377  00000-0  14607-2 0  9993","l2":"2 A0011  70.0013   2.2077 0003921 266.6994  93.3758 15.78642627  2690"},{"id":"100012","name":"STARLINK-38092","type":"PAYLOAD","l1":"1 A0012U          26204.82677478  .00309095  00000-0  16934-2 0  9997","l2":"2 A0012  69.9983   1.1189 0005537 277.9603  82.0968 15.78786281  2753"}]}