OBJECT_NAME,OBJECT_ID,EPOCH,MEAN_MOTION,ECCENTRICITY,INCLINATION,RA_OF_ASC_NODE,ARG_OF_PERICENTER,MEAN_ANOMALY,EPHEMERIS_TYPE,CLASSIFICATION_TYPE,NORAD_CAT_ID,ELEMENT_SET_NO,REV_AT_EPOCH,BSTAR,MEAN_MOTION_DOT,MEAN_MOTION_DDOT
STARLINK-38065,2026-159H,2026-07-24T06:00:02.000160,15.75181637,.00016062,97.2849,44.4507,105.9001,263.5905,0,U,69982,999,330,-.82884424E-4,-.1247E-3,0
STARLINK-38077,2026-159J,2026-07-24T02:50:45.438144,15.80825921,.00032603,97.2853,44.3179,56.0976,304.0602,0,U,69983,999,327,.17799304E-2,.355244E-2,0
STARLINK-38068,2026-159K,2026-07-24T02:49:41.138400,15.80893193,.0006087,97.2855,44.3189,36.6916,323.4768,0,U,69984,999,327,.73021871E-3,.142687E-2,0
STARLINK-38089,2026-159L,2026-07-24T01:17:26.156544,15.80829243,.00023154,97.2862,44.2531,63.0640,297.0865,0,U,69985,999,326,.1254847E-2,.247319E-2,0
STARLINK-38073,2026-159M,2026-07-24T02:47:30.828192,15.80825329,.00040768,97.2854,44.3211,43.9962,316.1630,0,U,69986,999,327,.19773819E-2,.396585E-2,0
STARLINK-38099,2026-159N,2026-07-24T06:00:02.000160,15.75204588,.00016622,97.2849,44.4577,88.5729,298.9466,0,U,69987,999,330,-.55862173E-3,-.82706E-3,0
STARLINK-38064,2026-159P,2026-07-24T02:44:15.257472,15.80893324,.00015167,97.2854,44.3241,83.3719,276.7722,0,U,69988,999,327,.10761658E-2,.211825E-2,0
STARLINK-38080,2026-159Q,2026-07-24T02:45:19.921824,15.80813089,.00009737,97.2857,44.3232,126.1879,233.9479,0,U,69989,999,327,.24988526E-2,.507403E-2,0
STARLINK-38070,2026-159R,2026-07-24T02:43:11.071776,15.80824096,.00036723,97.2853,44.3248,51.2805,308.8791,0,U,69990,999,327,.21000498E-2,.42241E-2,0
STARLINK-38042,2026-159S,2026-07-24T02:42:05.803488,15.80815297,.00024115,97.2853,44.3260,65.0876,295.0643,0,U,69991,999,327,.17320613E-2,.345092E-2,0
STARLINK-38071,2026-159T,2026-07-24T02:40:59.728224,15.80827487,.0001736,97.2857,44.3280,185.3588,174.7662,0,U,69992,999,327,.17070718E-2,.340098E-2,0
STARLINK-38082,2026-159U,2026-07-24T02:39:55.600416,15.80816750,.00015206,97.2856,44.3281,82.4297,277.7144,0,U,69993,999,327,.172345E-2,.343325E-2,0
STARLINK-38090,2026-159V,2026-07-24T06:00:02.000160,15.80860925,.00013799,97.2858,44.4792,80.1248,354.5922,0,U,69994,999,330,-.47564446E-3,-.90499E-3,0
STARLINK-38084,2026-159W,2026-07-24T06:00:02.000160,15.75273821,.00009908,97.2858,44.4688,89.4589,322.0361,0,U,69995,999,330,-.11024509E-2,-.16207E-2,0
STARLINK-38085,2026-159X,2026-07-24T06:00:02.000160,15.80849454,.00012963,97.2861,44.4824,77.4468,5.8201,0,U,69996,999,330,-.31338178E-3,-.59851E-3,0
STARLINK-38091,2026-159Y,2026-07-24T06:00:02.000160,15.80871285,.00014444,97.2857,44.4845,98.2248,349.3123,0,U,69997,999,330,-.56305487E-3,-.106956E-2,0
STARLINK-38086,2026-159Z,2026-07-24T06:00:02.000160,15.80870279,.00013836,97.2858,44.4864,85.4481,6.3626,0,U,69998,999,330,-.52668493E-3,-.100128E-2,0
SARAMAGO,2026-067CY,2026-07-24T06:02:00.009600,15.20587991,.00060802,97.4593,163.3456,227.0657,133.0069,0,U,100000,999,1733,.46252872E-3,.10075E-3,0
STARLINK-38128,2026-160A,2026-07-24T02:07:27.526656,15.78647428,.00051043,69.9996,0.4317,266.5471,93.5145,0,U,100001,999,279,.18945242E-2,.345104E-2,0
STARLINK-37711,2026-160B,2026-07-24T02:06:23.016096,15.78642908,.00034567,69.9986,0.4250,277.9883,82.0925,0,U,100002,999,279,.15891136E-2,.287346E-2,0
STARLINK-38123,2026-160C,2026-07-24T06:39:03.525696,15.78600889,.00039624,69.9989,359.8839,271.9695,88.1051,0,U,100003,999,282,.957142E-3,.170327E-2,0
STARLINK-38107,2026-160D,2026-07-23T19:59:13.484544,15.78716034,.0003479,69.9994,1.1428,295.9852,64.0990,0,U,100004,999,275,.12892706E-2,.232352E-2,0
STARLINK-38122,2026-160E,2026-07-23T23:00:37.913760,15.78641947,.00037353,70.0000,0.7798,280.1495,79.9284,0,U,100005,999,277,.13279753E-2,.238729E-2,0
STARLINK-38117,2026-160F,2026-07-23T19:57:02.338848,15.78688490,.00063524,70.0007,1.1393,262.7485,97.2993,0,U,100006,999,275,.18504732E-2,.337511E-2,0
STARLINK-38054,2026-160G,2026-07-23T19:55:50.460096,15.78909783,.00158544,70.0000,1.1351,324.6098,35.4048,0,U,100007,999,275,.17748711E-2,.328652E-2,0
STARLINK-38124,2026-160H,2026-07-24T06:36:04.161024,15.74248319,.00059032,70.0004,359.8763,290.0942,69.9621,0,U,100008,999,282,-.61269931E-2,-.806419E-2,0
STARLINK-38119,2026-160J,2026-07-24T06:33:44.832384,15.75873586,.00056604,69.9986,359.8691,221.4394,138.6376,0,U,100009,999,282,-.25028339E-2,-.371844E-2,0
STARLINK-38045,2026-160K,2026-07-23T19:52:43.512096,15.78627631,.00047696,69.9998,1.1277,282.5852,77.4815,0,U,100010,999,275,.15565701E-2,.281126E-2,0
STARLINK-38051,2026-160L,2026-07-23T10:44:07.782720,15.78642627,.00039208,70.0013,2.2077,266.6994,93.3758,0,U,100011,999,269,.14606627E-2,.263377E-2,0
STARLINK-38092,2026-160M,2026-07-23T19:50:33.340992,15.78786281,.00055373,69.9983,1.1189,277.9603,82.0968,0,U,100012,999,275,.16933555E-2,.309095E-2,0
